{
  "type": "FeatureCollection",
  "features": [
    {
      "type": "Feature",
      "properties": {
        "norad_id": 49809,
        "name": "GSAT0223 (GALILEO 27)",
        "group": "gnss",
        "lat": -11.991476018273186,
        "lon": 174.36584002695565,
        "alt_km": 23217.31672507436,
        "timestamp": "2025-12-20T09:36:01.888922+00:00",
        "meta_object_name": "GSAT0223 (GALILEO 27)",
        "meta_object_id": "2021-116A",
        "meta_epoch": "2025-12-19T11:56:47.637312",
        "meta_mean_motion": 1.7047609,
        "meta_eccentricity": 0.00044147,
        "meta_inclination": 57.2179,
        "meta_ra_of_asc_node": 346.5305,
        "meta_arg_of_pericenter": 254.6091,
        "meta_mean_anomaly": 105.9777,
        "meta_ephemeris_type": 0,
        "meta_classification_type": "U",
        "meta_norad_cat_id": 49809,
        "meta_element_set_no": 999,
        "meta_rev_at_epoch": 2512,
        "meta_bstar": 0,
        "meta_mean_motion_dot": -7.2e-07,
        "meta_mean_motion_ddot": 0,
        "tle_line1": "1 49809U 21116A   25353.49777358 -.00000072  00000+0  00000+0 0  9997",
        "tle_line2": "2 49809  57.2179 346.5305 0004414 254.6091 105.9777  1.70476090 25129"
      },
      "geometry": {
        "type": "Point",
        "coordinates": [
          174.36584002695565,
          -11.991476018273186
        ]
      }
    },
    {
      "type": "Feature",
      "properties": {
        "norad_id": 49810,
        "name": "GSAT0224 (GALILEO 28)",
        "group": "gnss",
        "lat": -42.20573036502677,
        "lon": -49.27355436095389,
        "alt_km": 23219.515755559623,
        "timestamp": "2025-12-20T09:36:01.888954+00:00",
        "meta_object_name": "GSAT0224 (GALILEO 28)",
        "meta_object_id": "2021-116B",
        "meta_epoch": "2025-12-18T10:12:29.028672",
        "meta_mean_motion": 1.70476126,
        "meta_eccentricity": 0.00037733,
        "meta_inclination": 57.2191,
        "meta_ra_of_asc_node": 346.558,
        "meta_arg_of_pericenter": 258.3671,
        "meta_mean_anomaly": 276.634,
        "meta_ephemeris_type": 0,
        "meta_classification_type": "U",
        "meta_norad_cat_id": 49810,
        "meta_element_set_no": 999,
        "meta_rev_at_epoch": 2512,
        "meta_bstar": 0,
        "meta_mean_motion_dot": -7.5e-07,
        "meta_mean_motion_ddot": 0,
        "tle_line1": "1 49810U 21116B   25352.42533598 -.00000075  00000+0  00000+0 0  9990",
        "tle_line2": "2 49810  57.2191 346.5580 0003773 258.3671 276.6340  1.70476126 25124"
      },
      "geometry": {
        "type": "Point",
        "coordinates": [
          -49.27355436095389,
          -42.20573036502677
        ]
      }
    },
    {
      "type": "Feature",
      "properties": {
        "norad_id": 52984,
        "name": "COSMOS 2557 (706K)",
        "group": "gnss",
        "lat": 52.00937420539674,
        "lon": -1.3985512072501474,
        "alt_km": 19151.579347027873,
        "timestamp": "2025-12-20T09:36:01.888976+00:00",
        "meta_object_name": "COSMOS 2557 (706K)",
        "meta_object_id": "2022-075A",
        "meta_epoch": "2025-12-18T21:54:24.162624",
        "meta_mean_motion": 2.1310197,
        "meta_eccentricity": 0.00135327,
        "meta_inclination": 64.4064,
        "meta_ra_of_asc_node": 320.8341,
        "meta_arg_of_pericenter": 277.9279,
        "meta_mean_anomaly": 81.9104,
        "meta_ephemeris_type": 0,
        "meta_classification_type": "U",
        "meta_norad_cat_id": 52984,
        "meta_element_set_no": 999,
        "meta_rev_at_epoch": 2687,
        "meta_bstar": 0,
        "meta_mean_motion_dot": -6.2e-07,
        "meta_mean_motion_ddot": 0,
        "tle_line1": "1 52984U 22075A   25352.91277966 -.00000062  00000+0  00000+0 0  9995",
        "tle_line2": "2 52984  64.4064 320.8341 0013532 277.9279  81.9104  2.13101970 26872"
      },
      "geometry": {
        "type": "Point",
        "coordinates": [
          -1.3985512072501474,
          52.00937420539674
        ]
      }
    },
    {
      "type": "Feature",
      "properties": {
        "norad_id": 54031,
        "name": "COSMOS 2559 (707K)",
        "group": "gnss",
        "lat": -17.706514512206773,
        "lon": 149.66358128829054,
        "alt_km": 19103.44199971044,
        "timestamp": "2025-12-20T09:36:01.888992+00:00",
        "meta_object_name": "COSMOS 2559 (707K)",
        "meta_object_id": "2022-130A",
        "meta_epoch": "2025-12-20T03:21:15.131808",
        "meta_mean_motion": 2.13101374,
        "meta_eccentricity": 0.0011589,
        "meta_inclination": 64.3781,
        "meta_ra_of_asc_node": 320.8808,
        "meta_arg_of_pericenter": 191.9403,
        "meta_mean_anomaly": 168.025,
        "meta_ephemeris_type": 0,
        "meta_classification_type": "U",
        "meta_norad_cat_id": 54031,
        "meta_element_set_no": 999,
        "meta_rev_at_epoch": 2487,
        "meta_bstar": 0,
        "meta_mean_motion_dot": -5.6e-07,
        "meta_mean_motion_ddot": 0,
        "tle_line1": "1 54031U 22130A   25354.13975847 -.00000056  00000+0  00000+0 0  9994",
        "tle_line2": "2 54031  64.3781 320.8808 0011589 191.9403 168.0250  2.13101374 24879"
      },
      "geometry": {
        "type": "Point",
        "coordinates": [
          149.66358128829054,
          -17.706514512206773
        ]
      }
    },
    {
      "type": "Feature",
      "properties": {
        "norad_id": 54377,
        "name": "COSMOS 2564 (761)",
        "group": "gnss",
        "lat": -36.16338478457459,
        "lon": 178.44916738178435,
        "alt_km": 19143.87162634521,
        "timestamp": "2025-12-20T09:36:01.889004+00:00",
        "meta_object_name": "COSMOS 2564 (761)",
        "meta_object_id": "2022-161A",
        "meta_epoch": "2025-12-19T23:36:52.524864",
        "meta_mean_motion": 2.13102076,
        "meta_eccentricity": 0.0008553,
        "meta_inclination": 64.7386,
        "meta_ra_of_asc_node": 198.6582,
        "meta_arg_of_pericenter": 203.9036,
        "meta_mean_anomaly": 156.1346,
        "meta_ephemeris_type": 0,
        "meta_classification_type": "U",
        "meta_norad_cat_id": 54377,
        "meta_element_set_no": 999,
        "meta_rev_at_epoch": 2381,
        "meta_bstar": 0,
        "meta_mean_motion_dot": 1.03e-06,
        "meta_mean_motion_ddot": 0,
        "tle_line1": "1 54377U 22161A   25353.98394126  .00000103  00000+0  00000+0 0  9990",
        "tle_line2": "2 54377  64.7386 198.6582 0008553 203.9036 156.1346  2.13102076 23817"
      },
      "geometry": {
        "type": "Point",
        "coordinates": [
          178.44916738178435,
          -36.16338478457459
        ]
      }
    },
    {
      "type": "Feature",
      "properties": {
        "norad_id": 55268,
        "name": "GPS BIII-6  (PRN 28)",
        "group": "gnss",
        "lat": -36.08674680073029,
        "lon": 124.94681230754274,
        "alt_km": 20180.103371538644,
        "timestamp": "2025-12-20T09:36:01.889018+00:00",
        "meta_object_name": "GPS BIII-6  (PRN 28)",
        "meta_object_id": "2023-009A",
        "meta_epoch": "2025-12-17T11:51:56.668896",
        "meta_mean_motion": 2.00555417,
        "meta_eccentricity": 0.00037978,
        "meta_inclination": 55.1064,
        "meta_ra_of_asc_node": 155.6587,
        "meta_arg_of_pericenter": 358.2196,
        "meta_mean_anomaly": 17.9493,
        "meta_ephemeris_type": 0,
        "meta_classification_type": "U",
        "meta_norad_cat_id": 55268,
        "meta_element_set_no": 999,
        "meta_rev_at_epoch": 2160,
        "meta_bstar": 0,
        "meta_mean_motion_dot": 7.7e-07,
        "meta_mean_motion_ddot": 0,
        "tle_line1": "1 55268U 23009A   25351.49440589  .00000077  00000+0  00000+0 0  9991",
        "tle_line2": "2 55268  55.1064 155.6587 0003797 358.2196  17.9493  2.00555417 21607"
      },
      "geometry": {
        "type": "Point",
        "coordinates": [
          124.94681230754274,
          -36.08674680073029
        ]
      }
    },
    {
      "type": "Feature",
      "properties": {
        "norad_id": 56564,
        "name": "BEIDOU-3 G4 (C62)",
        "group": "gnss",
        "lat": 0.8158008404136045,
        "lon": 33.26975959757909,
        "alt_km": 35794.23862238822,
        "timestamp": "2025-12-20T09:36:01.889030+00:00",
        "meta_object_name": "BEIDOU-3 G4 (C62)",
        "meta_object_id": "2023-066A",
        "meta_epoch": "2025-12-19T19:36:37.155744",
        "meta_mean_motion": 1.00271581,
        "meta_eccentricity": 0.00027289,
        "meta_inclination": 0.8001,
        "meta_ra_of_asc_node": 302.5987,
        "meta_arg_of_pericenter": 226.497,
        "meta_mean_anomaly": 13.7807,
        "meta_ephemeris_type": 0,
        "meta_classification_type": "U",
        "meta_norad_cat_id": 56564,
        "meta_element_set_no": 999,
        "meta_rev_at_epoch": 959,
        "meta_bstar": 0,
        "meta_mean_motion_dot": -8.6e-07,
        "meta_mean_motion_ddot": 0,
        "tle_line1": "1 56564U 23066A   25353.81709671 -.00000086  00000+0  00000+0 0  9993",
        "tle_line2": "2 56564   0.8001 302.5987 0002728 226.4970  13.7807  1.00271581  9594"
      },
      "geometry": {
        "type": "Point",
        "coordinates": [
          33.26975959757909,
          0.8158008404136045
        ]
      }
    }
  ]
}